[{"OBJECT_NAME":"STARLINK-5236","OBJECT_ID":"2023-010F","EPOCH":"2026-03-09T22:43:04.842912","MEAN_MOTION":14.98342601,"ECCENTRICITY":0.00031251,"INCLINATION":70.0009,"RA_OF_ASC_NODE":23.9711,"ARG_OF_PERICENTER":268.8514,"MEAN_ANOMALY":91.2288,"EPHEMERIS_TYPE":0,"CLASSIFICATION_TYPE":"U","NORAD_CAT_ID":55274,"ELEMENT_SET_NO":999,"REV_AT_EPOCH":17331,"BSTAR":-0.00032101058,"MEAN_MOTION_DOT":-3.922e-5,"MEAN_MOTION_DDOT":0},{"OBJECT_NAME":"OBJECT F","OBJECT_ID":"2025-026F","EPOCH":"2026-03-09T16:35:22.568352","MEAN_MOTION":14.96835273,"ECCENTRICITY":0.001234,"INCLINATION":81.996,"RA_OF_ASC_NODE":175.2789,"ARG_OF_PERICENTER":38.1083,"MEAN_ANOMALY":322.1008,"EPHEMERIS_TYPE":0,"CLASSIFICATION_TYPE":"U","NORAD_CAT_ID":63330,"ELEMENT_SET_NO":999,"REV_AT_EPOCH":5316,"BSTAR":0.00045702,"MEAN_MOTION_DOT":5.266e-5,"MEAN_MOTION_DDOT":0}]
